NORAD_CAT_ID,OBJECT_NAME,OBJECT_TYPE,EPOCH,MEAN_MOTION,ECCENTRICITY,INCLINATION,RA_OF_ASC_NODE,ARG_OF_PERICENTER,MEAN_ANOMALY,BSTAR,MEAN_MOTION_DOT,MEAN_MOTION_DDOT,TLE_LINE0,TLE_LINE1,TLE_LINE2,SEMIMAJOR_AXIS,PERIOD,APOGEE,PERIGEE,DECAYED
55643.0,STARLINK-5483,PAYLOAD,2023-03-30 05:58:53,15.69927151,0.0002933,70.0011,36.1268,259.6484,100.4382,7.624e-06,7.04e-06,0.0,0 STARLINK-5483,1 55643U 23021R   23089.24923608  .00000704  00000-0  76240-5 0  9992,2 55643  70.0011  36.1268 0002933 259.6484 100.4382 15.69927151  6892,6737.242,91.724,361.083,357.131,0.0
55643.0,STARLINK-5483,PAYLOAD,2023-03-31 00:19:54,15.69940622,0.0003318,70.001,33.9771,260.3221,99.76,2.8089e-05,3.168e-05,0.0,0 STARLINK-5483,1 55643U 23021R   23090.01383039  .00003168  00000-0  28089-4 0  9991,2 55643  70.0010  33.9771 0003318 260.3221  99.7600 15.69940622  7017,6737.204,91.723,361.304,356.833,0.0
55643.0,STARLINK-5483,PAYLOAD,2023-03-31 07:58:41,15.69913583,0.0002715,70.0021,33.082,264.4774,95.6112,-1.4738e-05,-1.983e-05,0.0,0 STARLINK-5483,1 55643U 23021R   23090.33242627 -.00001983  00000-0 -14738-4 0  9994,2 55643  70.0021  33.0820 0002715 264.4774  95.6112 15.69913583  7067,6737.281,91.725,360.975,357.317,0.0
55643.0,STARLINK-5483,PAYLOAD,2023-04-01 05:23:13,15.69924385,0.0003111,69.9997,30.5746,270.5549,89.529,-1.0745e-06,-3.42e-06,0.0,0 STARLINK-5483,1 55643U 23021R   23091.22445795 -.00000342  00000-0 -10745-5 0  9997,2 55643  69.9997  30.5746 0003111 270.5549  89.5290 15.69924385  7201,6737.25,91.724,361.211,357.019,0.0
55643.0,STARLINK-5483,PAYLOAD,2023-04-02 05:51:16,15.69913573,0.0002868,70.0004,27.7093,278.2401,81.8469,-2.7295e-05,-3.491e-05,0.0,0 STARLINK-5483,1 55643U 23021R   23092.24393693 -.00003491  00000-0 -27295-4 0  9994,2 55643  70.0004  27.7093 0002868 278.2401  81.8469 15.69913573  7363,6737.281,91.725,361.079,357.214,0.0
55643.0,STARLINK-5483,PAYLOAD,2023-04-02 21:08:46,15.69929956,0.0003295,70.0016,25.9196,281.4923,78.5903,-2.5207e-05,-3.243e-05,0.0,0 STARLINK-5483,1 55643U 23021R   23092.88109681 -.00003243  00000-0 -25207-4 0  9992,2 55643  70.0016  25.9196 0003295 281.4923  78.5903 15.69929956  7469,6737.234,91.724,361.319,356.879,0.0
55643.0,STARLINK-5483,PAYLOAD,2023-04-03 04:47:31,15.69942049,0.0003486,69.9987,25.0209,268.7811,91.2985,-1.0962e-05,-1.532e-05,0.0,0 STARLINK-5483,1 55643U 23021R   23093.19966656 -.00001532  00000-0 -10962-4 0  9991,2 55643  69.9987  25.0209 0003486 268.7811  91.2985 15.69942049  7511,6737.2,91.723,361.413,356.716,0.0
55643.0,STARLINK-5483,PAYLOAD,2023-04-03 21:36:48,15.69925601,0.0003591,70.0003,23.0495,266.8016,93.2769,1.0997e-06,-8.1e-07,0.0,0 STARLINK-5483,1 55643U 23021R   23093.90055921 -.00000081  00000-0  10997-5 0  9990,2 55643  70.0003  23.0495 0003591 266.8016  93.2769 15.69925601  7934,6737.247,91.724,361.531,356.693,0.0
55643.0,STARLINK-5483,PAYLOAD,2023-04-04 05:15:33,15.69933171,0.0003625,69.9981,22.1552,267.118,92.9601,-5.528e-07,-2.79e-06,0.0,0 STARLINK-5483,1 55643U 23021R   23094.21914000 -.00000279  00000-0 -55280-6 0  9992,2 55643  69.9981  22.1552 0003625 267.1180  92.9601 15.69933171  7677,6737.225,91.724,361.532,356.648,0.0
55643.0,STARLINK-5483,PAYLOAD,2023-04-04 19:01:20,15.69918326,0.0003291,69.9993,20.5418,263.0469,97.0353,7.657e-06,7.08e-06,0.0,0 STARLINK-5483,1 55643U 23021R   23094.79260026  .00000708  00000-0  76570-5 0  9996,2 55643  69.9993  20.5418 0003291 263.0469  97.0353 15.69918326  7762,6737.268,91.725,361.35,356.915,0.0
55643.0,STARLINK-5483,PAYLOAD,2023-04-04 22:04:50,15.69919621,0.0003407,69.9994,20.1833,266.7306,93.35,6.6437e-06,5.86e-06,0.0,0 STARLINK-5483,1 55643U 23021R   23094.92003332  .00000586  00000-0  66437-5 0  9991,2 55643  69.9994  20.1833 0003407 266.7306  93.3500 15.69919621  8098,6737.264,91.724,361.424,356.834,0.0
55643.0,STARLINK-5483,PAYLOAD,2023-04-05 04:11:50,15.69926701,0.0003254,69.9999,19.4669,265.9093,94.1731,1.4867e-05,1.575e-05,0.0,0 STARLINK-5483,1 55643U 23021R   23095.17489428  .00001575  00000-0  14867-4 0  9991,2 55643  69.9999  19.4669 0003254 265.9093  94.1731 15.69926701  7827,6737.244,91.724,361.301,356.916,0.0
55643.0,STARLINK-5483,PAYLOAD,2023-04-05 21:01:07,15.6990859,0.0002889,69.9999,17.498,249.3532,110.7355,3.2404e-05,3.683e-05,0.0,0 STARLINK-5483,1 55643U 23021R   23095.87578412  .00003683  00000-0  32404-4 0  9999,2 55643  69.9999  17.4980 0002889 249.3532 110.7355 15.69908590  8248,6737.296,91.725,361.107,357.214,0.0
55643.0,STARLINK-5483,PAYLOAD,2023-04-05 22:32:52,15.6992231,0.0002985,70.0003,17.3194,248.3711,111.7166,4.5138e-06,3.3e-06,0.0,0 STARLINK-5483,1 55643U 23021R   23095.93949903  .00000330  00000-0  45138-5 0  9998,2 55643  70.0003  17.3194 0002985 248.3711 111.7166 15.69922310  7941,6737.256,91.724,361.132,357.11,0.0
55643.0,STARLINK-5483,PAYLOAD,2023-04-06 06:11:37,15.69932347,0.0002988,70.0007,16.4232,257.0088,103.0774,2.1364e-05,2.358e-05,0.0,0 STARLINK-5483,1 55643U 23021R   23096.25807361  .00002358  00000-0  21364-4 0  9991,2 55643  70.0007  16.4232 0002988 257.0088 103.0774 15.69932347  7990,6737.228,91.724,361.106,357.079,0.0
55643.0,STARLINK-5483,PAYLOAD,2023-04-07 03:36:09,15.6992489,0.000329,69.9998,13.9157,261.4487,98.6336,8.0442e-06,7.55e-06,0.0,0 STARLINK-5483,1 55643U 23021R   23097.15011469  .00000755  00000-0  80442-5 0  9999,2 55643  69.9998  13.9157 0003290 261.4487  98.6336 15.69924890  8137,6737.249,91.724,361.33,356.897,0.0
55643.0,STARLINK-5483,PAYLOAD,2023-04-08 04:04:12,15.69919378,0.0003243,69.9994,11.0494,257.3504,102.7329,1.0931e-05,1.102e-05,0.0,0 STARLINK-5483,1 55643U 23021R   23098.16958457  .00001102  00000-0  10931-4 0  9990,2 55643  69.9994  11.0494 0003243 257.3504 102.7329 15.69919378  8299,6737.265,91.724,361.315,356.945,0.0
55643.0,STARLINK-5483,PAYLOAD,2023-04-08 05:35:57,15.69918815,0.0003254,69.9993,10.8701,257.3932,102.69,9.9178e-06,9.8e-06,0.0,0 STARLINK-5483,1 55643U 23021R   23098.23330188  .00000980  00000-0  99178-5 0  9997,2 55643  69.9993  10.8701 0003254 257.3932 102.6900 15.69918815  8618,6737.266,91.724,361.324,356.939,0.0
55643.0,STARLINK-5483,PAYLOAD,2023-04-09 03:00:28,15.69922866,0.000369,69.9983,8.3624,262.9392,97.1384,4.1472e-06,2.86e-06,0.0,0 STARLINK-5483,1 55643U 23021R   23099.12533270  .00000286  00000-0  41472-5 0  9996,2 55643  69.9983   8.3624 0003690 262.9392  97.1384 15.69922866  8759,6737.255,91.724,361.606,356.634,0.0
55643.0,STARLINK-5483,PAYLOAD,2023-04-09 18:18:00,15.69915144,0.0003931,69.9981,6.5704,262.7183,97.3566,1.0893e-05,1.097e-05,0.0,0 STARLINK-5483,1 55643U 23021R   23099.76250305  .00001097  00000-0  10893-4 0  9994,2 55643  69.9981   6.5704 0003931 262.7183  97.3566 15.69915144  8856,6737.277,91.725,361.79,356.493,0.0
55643.0,STARLINK-5483,PAYLOAD,2023-04-10 00:25:00,15.69927287,0.0003371,69.9991,5.8546,261.9994,98.082,1.2935e-05,1.343e-05,0.0,0 STARLINK-5483,1 55643U 23021R   23100.01736349  .00001343  00000-0  12935-4 0  9995,2 55643  69.9991   5.8546 0003371 261.9994  98.0820 15.69927287  8584,6737.242,91.724,361.378,356.836,0.0
55643.0,STARLINK-5483,PAYLOAD,2023-04-10 05:00:15,15.69931652,0.0003385,69.9992,5.3159,266.5804,93.5004,1.471e-05,1.557e-05,0.0,0 STARLINK-5483,1 55643U 23021R   23100.20851148  .00001557  00000-0  14710-4 0  9991,2 55643  69.9992   5.3159 0003385 266.5804  93.5004 15.69931652  8929,6737.23,91.724,361.375,356.814,0.0
55643.0,STARLINK-5483,PAYLOAD,2023-04-11 02:24:47,15.69921929,0.0002962,69.9998,2.8091,257.995,102.0914,1.9648e-05,2.15e-05,0.0,0 STARLINK-5483,1 55643U 23021R   23101.10054966  .00002150  00000-0  19648-4 0  9999,2 55643  69.9998   2.8091 0002962 257.9950 102.0914 15.69921929  8751,6737.257,91.724,361.118,357.127,0.0
55643.0,STARLINK-5483,PAYLOAD,2023-04-12 02:52:50,15.69916258,0.0003121,69.9989,359.9415,264.8919,95.192,-1.4515e-06,-3.87e-06,0.0,0 STARLINK-5483,1 55643U 23021R   23102.12002479 -.00000387  00000-0 -14515-5 0  9995,2 55643  69.9989 359.9415 0003121 264.8919  95.1920 15.69916258  8913,6737.274,91.725,361.241,357.036,0.0
55643.0,STARLINK-5483,PAYLOAD,2023-04-13 03:20:51,15.69923579,0.0003358,69.9975,357.078,258.6533,101.4285,1.4038e-05,1.475e-05,0.0,0 STARLINK-5483,1 55643U 23021R   23103.13948507  .00001475  00000-0  14038-4 0  9994,2 55643  69.9975 357.0780 0003358 258.6533 101.4285 15.69923579  9388,6737.253,91.724,361.38,356.855,0.0
55643.0,STARLINK-5483,PAYLOAD,2023-04-13 20:10:07,15.69928479,0.0003197,69.9986,355.1045,262.2201,97.8632,2.6568e-06,1.07e-06,0.0,0 STARLINK-5483,1 55643U 23021R   23103.84037017  .00000107  00000-0  26568-5 0  9990,2 55643  69.9986 355.1045 0003197 262.2201  97.8632 15.69928479  9183,6737.239,91.724,361.258,356.95,0.0
55643.0,STARLINK-5483,PAYLOAD,2023-04-14 02:17:07,15.69933163,0.0003693,69.9988,354.3892,265.3645,94.7129,1.5584e-05,1.662e-05,0.0,0 STARLINK-5483,1 55643U 23021R   23104.09522989  .00001662  00000-0  15584-4 0  9997,2 55643  69.9988 354.3892 0003693 265.3645  94.7129 15.69933163  9535,6737.225,91.724,361.578,356.602,0.0
55643.0,STARLINK-5483,PAYLOAD,2023-04-15 02:45:10,15.69929581,0.0002782,69.9972,351.5229,257.5218,102.5666,7.8545e-06,7.32e-06,0.0,0 STARLINK-5483,1 55643U 23021R   23105.11470364  .00000732  00000-0  78545-5 0  9994,2 55643  69.9972 351.5229 0002782 257.5218 102.5666 15.69929581  9698,6737.235,91.724,360.975,357.226,0.0
55643.0,STARLINK-5483,PAYLOAD,2023-04-15 22:37:56,15.69934484,0.0003723,69.9977,349.1943,267.3901,92.6869,9.8286e-06,9.69e-06,0.0,0 STARLINK-5483,1 55643U 23021R   23105.94302058  .00000969  00000-0  98286-5 0  9995,2 55643  69.9977 349.1943 0003723 267.3901  92.6869 15.69934484  9820,6737.221,91.724,361.595,356.578,0.0
55643.0,STARLINK-5483,PAYLOAD,2023-04-16 01:41:27,15.69936121,0.0003532,69.9971,348.8353,267.5784,92.5007,1.2489e-05,1.29e-05,0.0,0 STARLINK-5483,1 55643U 23021R   23106.07045211  .00001290  00000-0  12489-4 0  9993,2 55643  69.9971 348.8353 0003532 267.5784  92.5007 15.69936121  9849,6737.217,91.723,361.461,356.702,0.0
